[{"OBJECT_NAME":"STARLINK-3580","OBJECT_ID":"2022-017P","EPOCH":"2025-08-30T21:00:16.699392","MEAN_MOTION":15.08829811,"ECCENTRICITY":0.00012743,"INCLINATION":53.2169,"RA_OF_ASC_NODE":115.6798,"ARG_OF_PERICENTER":60.9518,"MEAN_ANOMALY":299.1602,"EPHEMERIS_TYPE":0,"CLASSIFICATION_TYPE":"U","NORAD_CAT_ID":51781,"ELEMENT_SET_NO":999,"REV_AT_EPOCH":19361,"BSTAR":-6.0009733e-5,"MEAN_MOTION_DOT":-1.243e-5,"MEAN_MOTION_DDOT":0},{"OBJECT_NAME":"STARLINK-3616","OBJECT_ID":"2022-017Q","EPOCH":"2025-08-30T23:27:22.290048","MEAN_MOTION":15.08850853,"ECCENTRICITY":0.00017162,"INCLINATION":53.2169,"RA_OF_ASC_NODE":125.4179,"ARG_OF_PERICENTER":122.5709,"MEAN_ANOMALY":237.5449,"EPHEMERIS_TYPE":0,"CLASSIFICATION_TYPE":"U","NORAD_CAT_ID":51782,"ELEMENT_SET_NO":999,"REV_AT_EPOCH":19339,"BSTAR":7.9339638e-5,"MEAN_MOTION_DOT":9.75e-6,"MEAN_MOTION_DDOT":0},{"OBJECT_NAME":"STARLINK-3628","OBJECT_ID":"2022-017R","EPOCH":"2025-08-30T22:42:21.445056","MEAN_MOTION":15.08836231,"ECCENTRICITY":0.000122,"INCLINATION":53.2161,"RA_OF_ASC_NODE":115.4522,"ARG_OF_PERICENTER":102.1578,"MEAN_ANOMALY":257.9551,"EPHEMERIS_TYPE":0,"CLASSIFICATION_TYPE":"U","NORAD_CAT_ID":51783,"ELEMENT_SET_NO":999,"REV_AT_EPOCH":19362,"BSTAR":1.7485782e-5,"MEAN_MOTION_DOT":-1.0e-7,"MEAN_MOTION_DDOT":0},{"OBJECT_NAME":"STARLINK-3632","OBJECT_ID":"2022-017S","EPOCH":"2025-08-30T23:00:50.484096","MEAN_MOTION":15.08843173,"ECCENTRICITY":0.00013372,"INCLINATION":53.2167,"RA_OF_ASC_NODE":125.3437,"ARG_OF_PERICENTER":89.0714,"MEAN_ANOMALY":271.0431,"EPHEMERIS_TYPE":0,"CLASSIFICATION_TYPE":"U","NORAD_CAT_ID":51784,"ELEMENT_SET_NO":999,"REV_AT_EPOCH":19348,"BSTAR":3.5847116e-5,"MEAN_MOTION_DOT":2.83e-6,"MEAN_MOTION_DDOT":0},{"OBJECT_NAME":"STARLINK-3646","OBJECT_ID":"2022-017T","EPOCH":"2025-08-30T22:26:27.001536","MEAN_MOTION":15.08839587,"ECCENTRICITY":0.00012875,"INCLINATION":53.2177,"RA_OF_ASC_NODE":115.4259,"ARG_OF_PERICENTER":90.3897,"MEAN_ANOMALY":269.7243,"EPHEMERIS_TYPE":0,"CLASSIFICATION_TYPE":"U","NORAD_CAT_ID":51785,"ELEMENT_SET_NO":999,"REV_AT_EPOCH":19362,"BSTAR":2.6876752e-5,"MEAN_MOTION_DOT":1.4e-6,"MEAN_MOTION_DDOT":0},{"OBJECT_NAME":"STARLINK-3638","OBJECT_ID":"2022-017U","EPOCH":"2025-08-30T22:50:15.018144","MEAN_MOTION":15.08841816,"ECCENTRICITY":0.00012762,"INCLINATION":53.2162,"RA_OF_ASC_NODE":125.3795,"ARG_OF_PERICENTER":90.1566,"MEAN_ANOMALY":269.9573,"EPHEMERIS_TYPE":0,"CLASSIFICATION_TYPE":"U","NORAD_CAT_ID":51786,"ELEMENT_SET_NO":999,"REV_AT_EPOCH":19348,"BSTAR":-1.5049797e-5,"MEAN_MOTION_DOT":-5.27e-6,"MEAN_MOTION_DDOT":0},{"OBJECT_NAME":"STARLINK-3619","OBJECT_ID":"2022-017V","EPOCH":"2025-08-30T23:11:26.773440","MEAN_MOTION":15.08831331,"ECCENTRICITY":0.00011882,"INCLINATION":53.2173,"RA_OF_ASC_NODE":125.3105,"ARG_OF_PERICENTER":94.0659,"MEAN_ANOMALY":266.0469,"EPHEMERIS_TYPE":0,"CLASSIFICATION_TYPE":"U","NORAD_CAT_ID":51787,"ELEMENT_SET_NO":999,"REV_AT_EPOCH":19348,"BSTAR":-3.0931644e-5,"MEAN_MOTION_DOT":-7.8e-6,"MEAN_MOTION_DDOT":0},{"OBJECT_NAME":"STARLINK-3641","OBJECT_ID":"2022-017W","EPOCH":"2025-08-30T22:34:21.353088","MEAN_MOTION":15.0884034,"ECCENTRICITY":0.00012151,"INCLINATION":53.2168,"RA_OF_ASC_NODE":125.4277,"ARG_OF_PERICENTER":99.5826,"MEAN_ANOMALY":260.5304,"EPHEMERIS_TYPE":0,"CLASSIFICATION_TYPE":"U","NORAD_CAT_ID":51788,"ELEMENT_SET_NO":999,"REV_AT_EPOCH":19512,"BSTAR":-4.6724411e-5,"MEAN_MOTION_DOT":-1.031e-5,"MEAN_MOTION_DDOT":0},{"OBJECT_NAME":"STARLINK-3639","OBJECT_ID":"2022-017X","EPOCH":"2025-08-30T22:55:33.105792","MEAN_MOTION":15.08837583,"ECCENTRICITY":0.00013636,"INCLINATION":53.2185,"RA_OF_ASC_NODE":125.3625,"ARG_OF_PERICENTER":94.5045,"MEAN_ANOMALY":265.6103,"EPHEMERIS_TYPE":0,"CLASSIFICATION_TYPE":"U","NORAD_CAT_ID":51789,"ELEMENT_SET_NO":999,"REV_AT_EPOCH":19348,"BSTAR":-7.724859e-6,"MEAN_MOTION_DOT":-4.11e-6,"MEAN_MOTION_DDOT":0},{"OBJECT_NAME":"STARLINK-3631","OBJECT_ID":"2022-017Y","EPOCH":"2025-08-30T22:29:03.489216","MEAN_MOTION":15.08840112,"ECCENTRICITY":0.00015584,"INCLINATION":53.2167,"RA_OF_ASC_NODE":125.4426,"ARG_OF_PERICENTER":92.4294,"MEAN_ANOMALY":267.6876,"EPHEMERIS_TYPE":0,"CLASSIFICATION_TYPE":"U","NORAD_CAT_ID":51790,"ELEMENT_SET_NO":999,"REV_AT_EPOCH":19517,"BSTAR":-6.061171e-6,"MEAN_MOTION_DOT":-3.84e-6,"MEAN_MOTION_DDOT":0},{"OBJECT_NAME":"STARLINK-3602","OBJECT_ID":"2022-017Z","EPOCH":"2025-08-30T22:44:56.937408","MEAN_MOTION":15.08847195,"ECCENTRICITY":0.00019857,"INCLINATION":53.2168,"RA_OF_ASC_NODE":125.3928,"ARG_OF_PERICENTER":89.94,"MEAN_ANOMALY":270.182,"EPHEMERIS_TYPE":0,"CLASSIFICATION_TYPE":"U","NORAD_CAT_ID":51791,"ELEMENT_SET_NO":999,"REV_AT_EPOCH":19512,"BSTAR":6.029737e-6,"MEAN_MOTION_DOT":-1.92e-6,"MEAN_MOTION_DDOT":0},{"OBJECT_NAME":"STARLINK-3626","OBJECT_ID":"2022-017AA","EPOCH":"2025-08-30T22:18:28.048320","MEAN_MOTION":15.08835634,"ECCENTRICITY":0.0001603,"INCLINATION":53.2165,"RA_OF_ASC_NODE":125.4797,"ARG_OF_PERICENTER":97.3199,"MEAN_ANOMALY":262.7976,"EPHEMERIS_TYPE":0,"CLASSIFICATION_TYPE":"U","NORAD_CAT_ID":51792,"ELEMENT_SET_NO":999,"REV_AT_EPOCH":19517,"BSTAR":-8.443367e-6,"MEAN_MOTION_DOT":-4.22e-6,"MEAN_MOTION_DDOT":0},{"OBJECT_NAME":"STARLINK-3633","OBJECT_ID":"2022-017AB","EPOCH":"2025-08-30T22:41:01.960512","MEAN_MOTION":15.08849115,"ECCENTRICITY":0.00014398,"INCLINATION":53.2171,"RA_OF_ASC_NODE":125.4168,"ARG_OF_PERICENTER":92.1832,"MEAN_ANOMALY":267.9325,"EPHEMERIS_TYPE":0,"CLASSIFICATION_TYPE":"U","NORAD_CAT_ID":51793,"ELEMENT_SET_NO":999,"REV_AT_EPOCH":19517,"BSTAR":9.490831e-5,"MEAN_MOTION_DOT":1.223e-5,"MEAN_MOTION_DDOT":0},{"OBJECT_NAME":"STARLINK-3573","OBJECT_ID":"2022-017AC","EPOCH":"2025-08-30T20:32:28.714560","MEAN_MOTION":15.0883324,"ECCENTRICITY":0.00011662,"INCLINATION":53.2171,"RA_OF_ASC_NODE":125.8068,"ARG_OF_PERICENTER":90.0684,"MEAN_ANOMALY":270.0442,"EPHEMERIS_TYPE":0,"CLASSIFICATION_TYPE":"U","NORAD_CAT_ID":51794,"ELEMENT_SET_NO":999,"REV_AT_EPOCH":19511,"BSTAR":-9.804538e-6,"MEAN_MOTION_DOT":-4.44e-6,"MEAN_MOTION_DDOT":0},{"OBJECT_NAME":"STARLINK-3586","OBJECT_ID":"2022-017AD","EPOCH":"2025-08-30T22:39:40.925952","MEAN_MOTION":15.08841636,"ECCENTRICITY":0.0001305,"INCLINATION":53.2166,"RA_OF_ASC_NODE":125.6128,"ARG_OF_PERICENTER":90.1114,"MEAN_ANOMALY":270.0028,"EPHEMERIS_TYPE":0,"CLASSIFICATION_TYPE":"U","NORAD_CAT_ID":51795,"ELEMENT_SET_NO":999,"REV_AT_EPOCH":19512,"BSTAR":2.4826451e-5,"MEAN_MOTION_DOT":1.07e-6,"MEAN_MOTION_DDOT":0},{"OBJECT_NAME":"STARLINK-3634","OBJECT_ID":"2022-017AG","EPOCH":"2025-08-30T23:22:03.003168","MEAN_MOTION":15.08836455,"ECCENTRICITY":0.00020397,"INCLINATION":53.2181,"RA_OF_ASC_NODE":125.2797,"ARG_OF_PERICENTER":103.8483,"MEAN_ANOMALY":256.2736,"EPHEMERIS_TYPE":0,"CLASSIFICATION_TYPE":"U","NORAD_CAT_ID":51798,"ELEMENT_SET_NO":999,"REV_AT_EPOCH":19517,"BSTAR":4.2887538e-5,"MEAN_MOTION_DOT":3.94e-6,"MEAN_MOTION_DDOT":0}]
