STARLINK-3580           
1 51781U 22017P   25242.87519328 -.00001243  00000+0 -60010-4 0  9994
2 51781  53.2169 115.6798 0001274  60.9518 299.1602 15.08829811193612
STARLINK-3616           
1 51782U 22017Q   25242.97734132  .00000975  00000+0  79340-4 0  9993
2 51782  53.2169 125.4179 0001716 122.5709 237.5449 15.08850853193393
STARLINK-3628           
1 51783U 22017R   25242.94608154 -.00000010  00000+0  17486-4 0  9999
2 51783  53.2161 115.4522 0001220 102.1578 257.9551 15.08836231193625
STARLINK-3632           
1 51784U 22017S   25242.95891764  .00000283  00000+0  35847-4 0  9994
2 51784  53.2167 125.3437 0001337  89.0714 271.0431 15.08843173193482
STARLINK-3646           
1 51785U 22017T   25242.93503474  .00000140  00000+0  26877-4 0  9996
2 51785  53.2177 115.4259 0001287  90.3897 269.7243 15.08839587193622
STARLINK-3638           
1 51786U 22017U   25242.95156271 -.00000527  00000+0 -15050-4 0  9990
2 51786  53.2162 125.3795 0001276  90.1566 269.9573 15.08841816193481
STARLINK-3619           
1 51787U 22017V   25242.96628210 -.00000780  00000+0 -30932-4 0  9996
2 51787  53.2173 125.3105 0001188  94.0659 266.0469 15.08831331193480
STARLINK-3641           
1 51788U 22017W   25242.94052492 -.00001031  00000+0 -46724-4 0  9994
2 51788  53.2168 125.4277 0001215  99.5826 260.5304 15.08840340195123
STARLINK-3639           
1 51789U 22017X   25242.95524428 -.00000411  00000+0 -77249-5 0  9997
2 51789  53.2185 125.3625 0001363  94.5045 265.6103 15.08837583193486
STARLINK-3631           
1 51790U 22017Y   25242.93684594 -.00000384  00000+0 -60612-5 0  9993
2 51790  53.2167 125.4426 0001558  92.4294 267.6876 15.08840112195176
STARLINK-3602           
1 51791U 22017Z   25242.94788122 -.00000192  00000+0  60297-5 0  9992
2 51791  53.2168 125.3928 0001985  89.9400 270.1820 15.08847195195129
STARLINK-3626           
1 51792U 22017AA  25242.92949130 -.00000422  00000+0 -84434-5 0  9995
2 51792  53.2165 125.4797 0001603  97.3199 262.7976 15.08835634195176
STARLINK-3633           
1 51793U 22017AB  25242.94516158  .00001223  00000+0  94908-4 0  9992
2 51793  53.2171 125.4168 0001439  92.1832 267.9325 15.08849115195174
STARLINK-3573           
1 51794U 22017AC  25242.85588790 -.00000444  00000+0 -98045-5 0  9997
2 51794  53.2171 125.8068 0001166  90.0684 270.0442 15.08833240195118
STARLINK-3586           
1 51795U 22017AD  25242.94422368  .00000107  00000+0  24826-4 0  9995
2 51795  53.2166 125.6128 0001305  90.1114 270.0028 15.08841636195121
STARLINK-3634           
1 51798U 22017AG  25242.97364587  .00000394  00000+0  42888-4 0  9995
2 51798  53.2181 125.2797 0002039 103.8483 256.2736 15.08836455195175
